DMSP-F10   B5D2-5
1 20978U 90105  A 90340.11689779  .00001179  00000-0  45420-3 0   138
2 20978  98.8595   8.5184 0081232 344.3852  15.4825 14.30406299   646
1 20978U 90105  A 90345.01332326  .00001341  00000-0  51407-3 0   150
2 20978  98.8602  13.5050 0081109 330.1294  29.5278 14.30419543  1341
1 20978U 90105  A 90349.90970388  .00001857  00000-0  70534-3 0   185
2 20978  98.8607  18.4928 0080863 315.6063  43.8647 14.30435830  2046
1 20978U 90105  A 90354.03663460  .00000911  00000-0  35452-3 0   219
2 20978  98.8581  22.6926 0080587 303.5275  55.8228 14.30440608  2638
1 20978U 90105  A 90360.05213836  .00000997  00000-0  38621-3 0   233
2 20978  98.8583  28.8182 0080638 285.7664  73.4664 14.30449778  3494
1 20978U 90105  A 90365.08835013  .00000951  00000-0  36926-3 0   289
2 20978  98.8580  33.9462 0080516 270.9324  88.2634 14.30459380  4215
1 20978U 90105  A 91005.96388532  .00001226  00000-0  47160-3 0   353
2 20978  98.8575  39.9281 0080012 253.9120 105.3244 14.30474670  5050
1 20978U 90105  A 91 10.44046937  .00000961  00000-0  37315-3 0   381
2 20978  98.8575  44.4858 0080235 240.6671 118.6531 14.30481634  5696
1 20978U 90105  A 91 24.35975450  .00000706  00000-0  27834-3 0   435
2 20978  98.8548  58.6571 0081092 199.4132 160.3959 14.30501519  7684
1 20978U 90105  A 91 29.04609468  .00001893  00000-0  71738-3 0   495
2 20978  98.8539  63.4286 0081440 185.7919 174.2340 14.30518747  8353
1 20978U 90105  A 91 35.27113710  .00002109  00000-0  79641-3 0   567
2 20978  98.8519  69.7640 0081604 167.5479 192.7736 14.30546645  9246
1 20978U 90105  A 91 44.92328875  .00001208  00000-0  46287-3 0   625
2 20978  98.8537  79.5893 0081719 139.4644 221.2661 14.30567399 10622
1 20978U 90105  A 91 50.09901425  .00001043  00000-0  40214-3 0   663
2 20978  98.8532  84.8567 0081918 124.4438 236.4520 14.30576825 11368
1 20978U 90105  A 91 56.88330007  .00001493  00000-0  56772-3 0   720
2 20978  98.8531  91.7626 0082373 104.8898 256.1428 14.30601774 12334
1 20978U 90105  A 91 61.70910504  .00002009  00000-0  75784-3 0   776
2 20978  98.8518  96.6738 0082574  91.0293 270.0351 14.30630735 13022
1 20978U 90105  A 91 66.39494912  .00002250  00000-0  84620-3 0   807
2 20978  98.8513 101.4422 0082204  77.4829 283.5581 14.30657238 13699
1 20978U 90105  A 91 73.38860627  .00002218  00000-0  83391-3 0   846
2 20978  98.8506 108.5586 0082203  57.2401 303.6670 14.30688267 14691
1 20978U 90105  A 91 79.89254384  .00002301  00000-0  86473-3 0   909
2 20978  98.8503 115.1769 0081944  38.5031 322.1975 14.30720287 15624
1 20978U 90105  A 91 84.29831460  .00003566  00000-0  13295-2 0   977
2 20978  98.8462 119.6602 0081549  25.6323 334.8870 14.30756918 16259
1 20978U 90105  A 91 88.98370256  .00002004  00000-0  75431-3 0  1033
2 20978  98.8451 124.4272 0081137  12.1835 348.1285 14.30785698 16925
1 20978U 90105  A 91 93.24945481  .00001767  00000-0  66701-3 0  1042
2 20978  98.8437 128.7665 0081019 359.7102   0.4020 14.30800073 17536
1 20978U 90105  A 91 97.93473245  .00001872  00000-0  70605-3 0  1063
2 20978  98.8442 133.5330 0080772 345.9981  13.8962 14.30818501 18205
1 20978U 90105  A 91110.87128302  .00003428  00000-0  12765-2 0  1727
2 20978  98.8403 146.6953 0080049 307.9713  51.4258 14.30901639 20053
1 20978U 90105  A 91115.13671322  .00002211  00000-0  82923-3 0  1763
2 20978  98.8403 151.0339 0079797 295.2897  64.0032 14.30915848 20665
1 20978U 90105  A 91121.98933118  .00001327  00000-0  50438-3 0  1816
2 20978  98.8405 158.0027 0079719 275.1927  84.0161 14.30928165 21643
1 20978U 90105  A 91127.02387451  .00001151  00000-0  44003-3 0  1850
2 20978  98.8410 163.1240 0079684 260.2912  98.9261 14.30938059 22361
1 20978U 90105  A 91131.07946133  .00001071  00000-0  40988-3 0  1891
2 20978  98.8413 167.2490 0079710 248.2669 111.0017 14.30945858 22946
1 20978U 90105  A 91137.23272264  .00001139  00000-0  43484-3 0  1958
2 20978  98.8412 173.5082 0079792 230.0192 129.3968 14.30961221 23829
1 20978U 90105  A 91314.74111911  .00002234  00000-0  82804-3 0  4265
2 20978  98.8204 353.9372 0081346  71.6553 289.3671 14.31419129 49217
1 20978U 90105  A 91319.07489748  .00001371  00000-0  51469-3 0  4288
2 20978  98.8196 358.3367 0081170  59.1249 301.7797 14.31432845 49834
1 20978U 90105  A 91325.92498833  .00001377  00000-0  51656-3 0  4323
2 20978  98.8190   5.2916 0080998  39.1916 321.5087 14.31452121 50813
1 20978U 90105  A 91331.09744391  .00000857  00000-0  32797-3 0  4351
2 20978  98.8174  10.5418 0080618  24.2051 336.2848 14.31461063 51550
1 20978U 90105  A 91335.43110318  .00000637  00000-0  24804-3 0  4399
2 20978  98.8172  14.9404 0080513  11.4948 348.8111 14.31465817 52170
1 20978U 90105  A 91342.56060980  .00000921  00000-0  35101-3 0  4411
2 20978  98.8163  22.1781 0080151 350.7199   9.2494 14.31480450 53199
1 20978U 90105  A 91347.87274346  .00001308  00000-0  49161-3 0  4504
2 20978  98.8146  27.5682 0079859 335.1204  24.6159 14.31494851 53959
1 20978U 90105  A 91351.92670818  .00001197  00000-0  45127-3 0  4570
2 20978  98.8146  31.6824 0079590 323.1785  36.3936 14.31504703 54532
1 20978U 90105  A 91356.12044200  .00001094  00000-0  41365-3 0  4641
2 20978  98.8146  35.9391 0079417 310.8468  48.5837 14.31514103 55134
1 20978U 90105  A 91360.87332142  .00000833  00000-0  31872-3 0  4735
2 20978  98.8125  40.7619 0079239 296.7414  62.5679 14.31521653 55816
1 20978U 90105  A 91365.55628212  .00001226  00000-0  46151-3 0  4767
2 20978  98.8124  45.5143 0079080 282.7346  76.4999 14.31533099 56483
1 20978U 90105  A 92  5.72846911  .00001582  00000-0  59111-3 0  4840
2 20978  98.8120  50.7629 0079092 267.4390  91.7770 14.31549858 57228
1 20978U 90105  A 92 11.45974645  .00001833  00000-0  68204-3 0  4935
2 20978  98.8098  56.5783 0079144 250.4772 108.7859 14.31571360 58042
1 20978U 90105  A 92 16.00278552  .00001323  00000-0  49653-3 0  5016
2 20978  98.8103  61.1882 0079282 236.9862 122.3630 14.31585055 58699
1 20978U 90105  A 92 20.05654002  .00000887  00000-0  33800-3 0  5037
2 20978  98.8097  65.3016 0079454 225.0209 134.3762 14.31592446 59277
1 20978U 90105  A 92 24.73933814  .00000742  00000-0  28549-3 0  5075
2 20978  98.8077  70.0512 0079559 211.2149 148.4299 14.31600233 59944
1 20978U 90105  A 92 29.07263587  .00001380  00000-0  51636-3 0  5139
2 20978  98.8081  74.4478 0079876 198.4109 161.4191 14.31611908 60569
1 20978U 90105  A 92 34.17468545  .00002406  00000-0  88837-3 0  5185
2 20978  98.8073  79.6236 0079893 183.5073 176.5615 14.31636070 61299
1 20978U 90105  A 92 38.50784681  .00002379  00000-0  87785-3 0  5256
2 20978  98.8058  84.0179 0080273 170.7787 189.4854 14.31661724 61913
1 20978U 90105  A 92 44.09893150  .00002351  00000-0  86654-3 0  5310
2 20978  98.8052  89.6890 0080494 154.5552 205.9571 14.31689238 62712
1 20978U 90105  A 92 49.48027756  .00001192  00000-0  44774-3 0  5374
2 20978  98.8051  95.1478 0080653 138.8905 221.8365 14.31700194 63487
1 20978U 90105  A 92 53.67348193  .00002101  00000-0  77590-3 0  5420
2 20978  98.8031  99.3996 0080813 126.6247 234.2412 14.31718240 64087
1 20978U 90105  A 92 57.86661703  .00002563  00000-0  94216-3 0  5460
2 20978  98.8030 103.6518 0080847 114.6521 246.3157 14.31740904 64682
1 20978U 90105  A 92 62.05966118  .00003113  00000-0  11400-2 0  5516
2 20978  98.8025 107.9043 0080951 102.4906 258.5339 14.31771358 65285
1 20978U 90105  A 92 66.46229074  .00001629  00000-0  60451-3 0  5553
2 20978  98.8011 112.3678 0080947  89.6767 271.3681 14.31785399 65913
1 20978U 90105  A 92 82.39524128  .00001270  00000-0  47453-3 0  5594
2 20978  98.8001 128.5201 0080795  43.3431 317.4050 14.31826046 68199
1 20978U 90105  A 92 86.79767027  .00001614  00000-0  59870-3 0  5733
2 20978  98.7969 132.9843 0080318  30.7925 329.7934 14.31840668 68824
1 20978U 90105  A 92 91.26993099  .00001230  00000-0  45987-3 0  5762
2 20978  98.7961 137.5171 0080075  17.7685 342.6255 14.31851087 69467
1 20978U          92 97.62886892  .00001186  00000-0  44414-3 0  8290
2 20978  98.7945 143.9613 0079681 359.2022   0.9016 14.31865039 70374
1 20978U 90105  A 92102.10106889  .00000691  00000-0  24947-3 0 05865
2 20978 098.7905 148.4946 0079858 345.4192 014.5219 14.31869911071011
1 20978U 90105  A 92107.06238620  .00000731  00000-0  26414-3 0 05916
2 20978 098.7913 153.5233 0079925 330.9783 028.7483 14.31876589071723
1 20978U 90105  A 92111.25502342  .00000824  00000-0  31360-3 0  6254
2 20978  98.7915 157.7706 0078977 319.0756  40.4527 14.31884355 72327
1 20978U 90105  A 92116.28616335  .00001166  00000-0  43697-3 0  6302
2 20978  98.7909 162.8684 0078680 304.1470  55.2270 14.31898479 73042
1 20978U 90105  A 92121.73653461  .00000983  00000-0  37102-3 0  6365
2 20978  98.7912 168.3917 0078605 287.8180  71.4423 14.31908520 73823
1 20978U 90105  A 92126.69775823  .00000983  00000-0  37102-3 0  6407
2 20978  98.7894 173.4175 0078444 273.2104  86.0052 14.31914965 74530
1 20978U 90105  A 92131.09996769  .00000984  00000-0  37102-3 0  6457
2 20978  98.7889 177.8780 0078637 259.9716  99.2535 14.31918705 75166
1 20978U 90105  A 92135.22266286  .00000983  00000-0  37102-3 0  6482
2 20978  98.7892 182.0549 0078633 247.7397 111.5405 14.31924876 75752
1 20978U 90105  A 92139.76462389 -.00004609  00000-0 -16570-2 0  6551
2 20978  98.7863 186.6564 0078656 234.2394 125.2002 14.31918729 76408
1 20978U 90105  A 92144.16679985  .00000404  00000-0  16158-3 0  6609
2 20978  98.7873 191.1156 0078918 221.2819 138.2403 14.31931128 77033
1 20978U 90105  A 92149.26773563  .00000272  00000-0  11426-3 0  6642
2 20978  98.7878 196.2826 0079223 206.1831 153.5293 14.31935984 77765
1 20978U 90105  A 92154.08916174  .00000242  00000-0  95074-4 0  6699
2 20978  98.7875 201.1662 0079431 191.9895 167.9403 14.31939636 78455
1 20978U 90105  A 92158.56120143  .00000235  00000-0  10075-3 0  6711
2 20978  98.7862 205.6955 0079928 178.8461 181.2921 14.31942439 79099
1 20978U 90105  A 92162.89348086  .00000429  00000-0  17069-3 0  6782
2 20978  98.7869 210.0833 0080022 166.1636 194.1776 14.31946444 79712
